{
  "type": "FeatureCollection",
  "features": [
    {
      "type": "Feature",
      "geometry": {
        "type": "Point",
        "coordinates": [
          85.3560478,
          27.699433
        ]
      },
      "properties": {
        "name": "트리부반 국제공항",
        "desc": "",
        "order": 1
      }
    },
    {
      "type": "Feature",
      "geometry": {
        "type": "Point",
        "coordinates": [
          85.3041952,
          27.6538657
        ]
      },
      "properties": {
        "name": "카트만두 호텔",
        "desc": "",
        "order": 2
      }
    },
    {
      "type": "Feature",
      "geometry": {
        "type": "LineString",
        "coordinates": [
          [
            85.3560478,
            27.699433
          ],
          [
            85.3041952,
            27.6538657
          ]
        ]
      },
      "properties": {
        "name": "경로",
        "type": "route"
      }
    }
  ]
}