{
  "type": "FeatureCollection",
  "features": [
    {
      "type": "Feature",
      "geometry": {
        "type": "Point",
        "coordinates": [
          85.3041952,
          27.6538657
        ]
      },
      "properties": {
        "name": "카트만두 호텔",
        "desc": "",
        "order": 1
      }
    },
    {
      "type": "Feature",
      "geometry": {
        "type": "Point",
        "coordinates": [
          85.2981523,
          27.6433115
        ]
      },
      "properties": {
        "name": "한인교회",
        "desc": "",
        "order": 2
      }
    },
    {
      "type": "Feature",
      "geometry": {
        "type": "Point",
        "coordinates": [
          85.2348317,
          27.6822814
        ]
      },
      "properties": {
        "name": "조이하우스",
        "desc": "",
        "order": 3
      }
    },
    {
      "type": "Feature",
      "geometry": {
        "type": "Point",
        "coordinates": [
          85.2277138,
          27.6700375
        ]
      },
      "properties": {
        "name": "베이스",
        "desc": "",
        "order": 4
      }
    },
    {
      "type": "Feature",
      "geometry": {
        "type": "LineString",
        "coordinates": [
          [
            85.3041952,
            27.6538657
          ],
          [
            85.3001651,
            27.6485696
          ],
          [
            85.2981523,
            27.6433115
          ],
          [
            85.2348317,
            27.6822814
          ],
          [
            85.2277138,
            27.6700375
          ]
        ]
      },
      "properties": {
        "name": "경로",
        "type": "route"
      }
    }
  ]
}