{
  "type": "FeatureCollection",
  "features": [
    {
      "type": "Feature",
      "geometry": {
        "type": "Point",
        "coordinates": [
          85.2276191,
          27.6700504
        ]
      },
      "properties": {
        "name": "베이스",
        "desc": "",
        "order": 1
      }
    },
    {
      "type": "Feature",
      "geometry": {
        "type": "Point",
        "coordinates": [
          84.9103803,
          27.913754
        ]
      },
      "properties": {
        "name": "썰보트 교회",
        "desc": "",
        "order": 2
      }
    },
    {
      "type": "Feature",
      "geometry": {
        "type": "Point",
        "coordinates": [
          84.8887357,
          27.9113853
        ]
      },
      "properties": {
        "name": "다딩 호텔",
        "desc": "",
        "order": 3
      }
    },
    {
      "type": "Feature",
      "geometry": {
        "type": "LineString",
        "coordinates": [
          [
            85.2275016,
            27.6700962
          ],
          [
            84.9103803,
            27.913754
          ],
          [
            84.8887357,
            27.9113853
          ]
        ]
      },
      "properties": {
        "name": "경로",
        "type": "route"
      }
    }
  ]
}