{
  "type": "FeatureCollection",
  "features": [
    {
      "type": "Feature",
      "geometry": {
        "type": "Point",
        "coordinates": [
          83.9659068,
          28.2039768
        ]
      },
      "properties": {
        "name": "포카라 호텔",
        "desc": "",
        "order": 1
      }
    },
    {
      "type": "Feature",
      "geometry": {
        "type": "Point",
        "coordinates": [
          83.824118,
          28.2922508
        ]
      },
      "properties": {
        "name": "오스트레일리안 베이스 캠프",
        "desc": "",
        "order": 2
      }
    },
    {
      "type": "Feature",
      "geometry": {
        "type": "Point",
        "coordinates": [
          83.9658994,
          28.2039597
        ]
      },
      "properties": {
        "name": "포카라 호텔",
        "desc": "",
        "order": 3
      }
    },
    {
      "type": "Feature",
      "geometry": {
        "type": "LineString",
        "coordinates": [
          [
            83.9662357,
            28.2044952
          ],
          [
            83.8985852,
            28.2539021
          ],
          [
            83.824118,
            28.2922508
          ],
          [
            83.8895546,
            28.2445867
          ],
          [
            83.9659189,
            28.2039933
          ]
        ]
      },
      "properties": {
        "name": "경로",
        "type": "route"
      }
    }
  ]
}