{
  "type": "FeatureCollection",
  "features": [
    {
      "type": "Feature",
      "geometry": {
        "type": "Point",
        "coordinates": [
          83.96589,
          28.2039478
        ]
      },
      "properties": {
        "name": "포카라 호텔",
        "desc": "",
        "order": 1
      }
    },
    {
      "type": "Feature",
      "geometry": {
        "type": "Point",
        "coordinates": [
          85.2277963,
          27.6700204
        ]
      },
      "properties": {
        "name": "베이스",
        "desc": "",
        "order": 2
      }
    },
    {
      "type": "Feature",
      "geometry": {
        "type": "LineString",
        "coordinates": [
          [
            83.9659189,
            28.2039933
          ],
          [
            85.2276386,
            27.6699615
          ]
        ]
      },
      "properties": {
        "name": "경로",
        "type": "route"
      }
    }
  ]
}