{
  "type": "FeatureCollection",
  "features": [
    {
      "type": "Feature",
      "geometry": {
        "type": "Point",
        "coordinates": [
          85.2277436,
          27.6699679
        ]
      },
      "properties": {
        "name": "베이스",
        "desc": "",
        "order": 1
      }
    },
    {
      "type": "Feature",
      "geometry": {
        "type": "Point",
        "coordinates": [
          85.3481315,
          27.7099451
        ]
      },
      "properties": {
        "name": "파슈파티나트 사원",
        "desc": "",
        "order": 2
      }
    },
    {
      "type": "Feature",
      "geometry": {
        "type": "Point",
        "coordinates": [
          85.3053639,
          27.70212
        ]
      },
      "properties": {
        "name": "쿠마리 사원",
        "desc": "",
        "order": 3
      }
    },
    {
      "type": "Feature",
      "geometry": {
        "type": "Point",
        "coordinates": [
          85.273384,
          27.6968765
        ]
      },
      "properties": {
        "name": "꺼랄교회",
        "desc": "",
        "order": 4
      }
    },
    {
      "type": "Feature",
      "geometry": {
        "type": "Point",
        "coordinates": [
          85.3041822,
          27.653811
        ]
      },
      "properties": {
        "name": "카트만두 호텔",
        "desc": "",
        "order": 5
      }
    },
    {
      "type": "Feature",
      "geometry": {
        "type": "LineString",
        "coordinates": [
          [
            85.2277138,
            27.6700375
          ],
          [
            85.3481315,
            27.7099451
          ],
          [
            85.3053639,
            27.70212
          ],
          [
            85.273384,
            27.6968765
          ],
          [
            85.304156,
            27.6538514
          ]
        ]
      },
      "properties": {
        "name": "경로",
        "type": "route"
      }
    }
  ]
}