{
  "type": "FeatureCollection",
  "features": [
    {
      "type": "Feature",
      "geometry": {
        "type": "Point",
        "coordinates": [
          85.3174593,
          27.6621499
        ]
      },
      "properties": {
        "name": "카트만두 호텔",
        "desc": "",
        "order": 1
      }
    },
    {
      "type": "Feature",
      "geometry": {
        "type": "Point",
        "coordinates": [
          85.2979951,
          27.6433268
        ]
      },
      "properties": {
        "name": "현지교회",
        "desc": "",
        "order": 2
      }
    },
    {
      "type": "Feature",
      "geometry": {
        "type": "Point",
        "coordinates": [
          85.3560478,
          27.699433
        ]
      },
      "properties": {
        "name": "트리부반 국제공항",
        "desc": "",
        "order": 3
      }
    },
    {
      "type": "Feature",
      "geometry": {
        "type": "LineString",
        "coordinates": [
          [
            85.3042664,
            27.6537638
          ],
          [
            85.3019099,
            27.6483313
          ],
          [
            85.2983306,
            27.6432598
          ],
          [
            85.3561913,
            27.6988024
          ]
        ]
      },
      "properties": {
        "name": "경로",
        "type": "route"
      }
    }
  ]
}